NORAD_CAT_ID,OBJECT_NAME,OBJECT_TYPE,EPOCH,MEAN_MOTION,ECCENTRICITY,INCLINATION,RA_OF_ASC_NODE,ARG_OF_PERICENTER,MEAN_ANOMALY,BSTAR,MEAN_MOTION_DOT,MEAN_MOTION_DDOT,TLE_LINE0,TLE_LINE1,TLE_LINE2,SEMIMAJOR_AXIS,PERIOD,APOGEE,PERIGEE,DECAYED
55283.0,STARLINK-5317,PAYLOAD,2023-05-19 21:38:41,14.98644784,0.0003346,69.9985,108.2692,263.289,96.7889,-0.0045009,-0.00053825,0.0,0 STARLINK-5317,1 55283U 23010Q   23139.90187375 -.00053825  00000-0 -45009-2 0  9992,2 55283  69.9985 108.2692 0003346 263.2890  96.7889 14.98644784 19276,6949.22,96.087,573.41,568.759,0.0
55283.0,STARLINK-5317,PAYLOAD,2023-05-20 04:03:09,14.98628506,0.0003491,69.9983,107.5947,266.9109,93.1651,-0.004367,-0.00052217,0.0,0 STARLINK-5317,1 55283U 23010Q   23140.16886017 -.00052217  00000-0 -43670-2 0  9997,2 55283  69.9983 107.5947 0003491 266.9109  93.1651 14.98628506 19017,6949.27,96.088,573.561,568.709,0.0
55283.0,STARLINK-5317,PAYLOAD,2023-05-20 15:15:59,14.98596585,0.0003403,69.9986,106.4161,266.981,93.0959,-0.0040013,-0.00047842,0.0,0 STARLINK-5317,1 55283U 23010Q   23140.63610088 -.00047842  00000-0 -40013-2 0  9998,2 55283  69.9986 106.4161 0003403 266.9810  93.0959 14.98596585 19389,6949.369,96.09,573.598,568.869,0.0
55283.0,STARLINK-5317,PAYLOAD,2023-05-21 04:04:58,14.98511003,0.0003279,69.9986,105.0691,269.848,90.2303,-0.0027731,-0.00033181,0.0,0 STARLINK-5317,1 55283U 23010Q   23141.17012038 -.00033181  00000-0 -27731-2 0  9992,2 55283  69.9986 105.0691 0003279 269.8480  90.2303 14.98511003 19168,6949.633,96.095,573.777,569.219,0.0
55283.0,STARLINK-5317,PAYLOAD,2023-05-21 07:17:13,14.98503934,0.0003382,69.9987,104.7325,273.1236,86.9536,-0.0026779,-0.00032044,0.0,0 STARLINK-5317,1 55283U 23010Q   23141.30362631 -.00032044  00000-0 -26779-2 0  9992,2 55283  69.9987 104.7325 0003382 273.1236  86.9536 14.98503934 19480,6949.655,96.096,573.87,569.17,0.0
55283.0,STARLINK-5317,PAYLOAD,2023-05-21 15:17:57,14.9833188,0.0002892,70.0,103.8924,277.1653,82.9177,0.00018692,2.138e-05,0.0,0 STARLINK-5317,1 55283U 23010Q   23141.63746670  .00002138  00000-0  18692-3 0  9992,2 55283  70.0000 103.8924 0002892 277.1653  82.9177 14.98331880 19235,6950.187,96.107,574.062,570.042,0.0
55283.0,STARLINK-5317,PAYLOAD,2023-05-21 21:42:29,14.98329436,0.0003355,69.9988,103.2176,268.3155,91.762,0.00010407,1.149e-05,0.0,0 STARLINK-5317,1 55283U 23010Q   23141.90451101  .00001149  00000-0  10407-3 0  9991,2 55283  69.9988 103.2176 0003355 268.3155  91.7620 14.98329436 19576,6950.195,96.107,574.391,569.728,0.0
55283.0,STARLINK-5317,PAYLOAD,2023-05-22 14:00:01,14.98341151,0.0003387,70.0011,101.5059,270.939,149.74,-0.0021055,-0.00025134,0.0,0 STARLINK-5317,1 55283U 23010Q   23142.58334491 -.00025134  00000-0 -21055-2 0  9990,2 55283  70.0011 101.5059 0003387 270.9390 149.7400 14.98341151  1302,6950.158,96.106,574.377,569.669,0.0
55283.0,STARLINK-5317,PAYLOAD,2023-05-22 22:00:00,14.98355536,0.0003419,70.0014,100.6656,267.9579,150.2019,-0.00012511,-1.587e-05,0.0,0 STARLINK-5317,1 55283U 23010Q   23142.91667824 -.00001587  00000-0 -12511-3 0  9990,2 55283  70.0014 100.6656 0003419 267.9579 150.2019 14.98355536 19426,6950.114,96.105,574.355,569.603,0.0
55283.0,STARLINK-5317,PAYLOAD,2023-05-23 20:10:23,14.98331578,0.0003195,69.9995,98.3364,270.9929,89.0864,5.6945e-05,5.87e-06,0.0,0 STARLINK-5317,1 55283U 23010Q   23143.84054511  .00000587  00000-0  56945-4 0  9993,2 55283  69.9995  98.3364 0003195 270.9929  89.0864 14.98331578 19869,6950.188,96.107,574.274,569.832,0.0
55283.0,STARLINK-5317,PAYLOAD,2023-05-23 23:22:39,14.98331127,0.0003208,69.9995,97.9997,270.8297,89.2494,4.9932e-05,5.03e-06,0.0,0 STARLINK-5317,1 55283U 23010Q   23143.97406533  .00000503  00000-0  49932-4 0  9998,2 55283  69.9995  97.9997 0003208 270.8297  89.2494 14.98331127 19588,6950.189,96.107,574.284,569.825,0.0
55283.0,STARLINK-5317,PAYLOAD,2023-05-24 07:23:19,14.98333248,0.0003105,69.9997,97.1587,269.4268,90.6535,8.6254e-05,9.36e-06,0.0,0 STARLINK-5317,1 55283U 23010Q   23144.30786296  .00000936  00000-0  86254-4 0  9991,2 55283  69.9997  97.1587 0003105 269.4268  90.6535 14.98333248 19932,6950.183,96.107,574.206,569.89,0.0
55283.0,STARLINK-5317,PAYLOAD,2023-05-25 21:50:32,14.98329769,0.0002912,70.0,93.1187,265.5914,94.4913,3.6099e-05,3.38e-06,0.0,0 STARLINK-5317,1 55283U 23010Q   23145.91010235  .00000338  00000-0  36099-4 0  9990,2 55283  70.0000  93.1187 0002912 265.5914  94.4913 14.98329769 20175,6950.194,96.107,574.083,570.035,0.0
55283.0,STARLINK-5317,PAYLOAD,2023-05-26 04:15:05,14.98329004,0.0002926,70.0,92.4454,265.7676,94.3148,2.3247e-05,1.84e-06,0.0,0 STARLINK-5317,1 55283U 23010Q   23146.17714316  .00000184  00000-0  23247-4 0  9990,2 55283  70.0000  92.4454 0002926 265.7676  94.3148 14.98329004 19917,6950.196,96.107,574.095,570.027,0.0
55283.0,STARLINK-5317,PAYLOAD,2023-05-26 05:51:13,14.98329246,0.0003025,69.9997,92.2769,268.4711,91.6102,1.7994e-05,1.22e-06,0.0,0 STARLINK-5317,1 55283U 23010Q   23146.24390319  .00000122  00000-0  17994-4 0  9995,2 55283  69.9997  92.2769 0003025 268.4711  91.6102 14.98329246 20221,6950.195,96.107,574.163,569.958,0.0
55283.0,STARLINK-5317,PAYLOAD,2023-05-26 21:52:34,14.9832761,0.0003042,69.9995,90.5934,267.587,92.4941,-7.1655e-06,-1.79e-06,0.0,0 STARLINK-5317,1 55283U 23010Q   23146.91150497 -.00000179  00000-0 -71655-5 0  9999,2 55283  69.9995  90.5934 0003042 267.5870  92.4941 14.98327610 20323,6950.2,96.107,574.18,569.951,0.0
55283.0,STARLINK-5317,PAYLOAD,2023-05-27 04:17:06,14.98329542,0.0003016,69.9997,89.9202,267.1752,92.9062,1.5155e-05,8.8e-07,0.0,0 STARLINK-5317,1 55283U 23010Q   23147.17854330  .00000088  00000-0  15155-4 0  9994,2 55283  69.9997  89.9202 0003016 267.1752  92.9062 14.98329542 20067,6950.194,96.107,574.155,569.963,0.0
55283.0,STARLINK-5317,PAYLOAD,2023-05-27 21:54:34,14.98329989,0.0003067,69.9995,88.0683,267.5162,92.5646,5.112e-05,5.17e-06,0.0,0 STARLINK-5317,1 55283U 23010Q   23147.91290216  .00000517  00000-0  51120-4 0  9992,2 55283  69.9995  88.0683 0003067 267.5162  92.5646 14.98329989 20477,6950.193,96.107,574.19,569.926,0.0
55283.0,STARLINK-5317,PAYLOAD,2023-05-28 05:55:14,14.98333069,0.0003074,69.9997,87.2271,268.1512,91.9295,8.0741e-05,8.71e-06,0.0,0 STARLINK-5317,1 55283U 23010Q   23148.24669958  .00000871  00000-0  80741-4 0  9996,2 55283  69.9997  87.2271 0003074 268.1512  91.9295 14.98333069 20227,6950.183,96.107,574.185,569.912,0.0
55283.0,STARLINK-5317,PAYLOAD,2023-05-28 21:56:35,14.98334513,0.0003082,69.9997,85.544,268.1325,91.9481,8.6876e-05,9.44e-06,0.0,0 STARLINK-5317,1 55283U 23010Q   23148.91429761  .00000944  00000-0  86876-4 0  9992,2 55283  69.9997  85.5440 0003082 268.1325  91.9481 14.98334513 20623,6950.179,96.107,574.186,569.902,0.0
55283.0,STARLINK-5317,PAYLOAD,2023-05-29 05:57:15,14.98339745,0.0003036,69.9998,84.7023,268.0594,92.0218,0.00013723,1.545e-05,0.0,0 STARLINK-5317,1 55283U 23010Q   23149.24809171  .00001545  00000-0  13723-3 0  9994,2 55283  69.9998  84.7023 0003036 268.0594  92.0218 14.98339745 20372,6950.163,96.106,574.138,569.918,0.0
55283.0,STARLINK-5317,PAYLOAD,2023-05-29 20:22:28,14.98326166,0.0002826,70.0005,83.1874,269.137,90.9465,-7.4581e-05,-9.83e-06,0.0,0 STARLINK-5317,1 55283U 23010Q   23149.84894552 -.00000983  00000-0 -74581-4 0  9994,2 55283  70.0005  83.1874 0002826 269.1370  90.9465 14.98326166 20768,6950.205,96.107,574.034,570.106,0.0
55283.0,STARLINK-5317,PAYLOAD,2023-05-30 01:10:53,14.98325032,0.0002839,70.0004,82.6824,269.0669,91.0165,-8.42e-05,-1.097e-05,0.0,0 STARLINK-5317,1 55283U 23010Q   23150.04922674 -.00001097  00000-0 -84200-4 0  9991,2 55283  70.0004  82.6824 0002839 269.0669  91.0165 14.98325032 20490,6950.208,96.107,574.046,570.1,0.0
55283.0,STARLINK-5317,PAYLOAD,2023-05-30 05:59:17,14.98323622,0.0002641,70.0009,82.1787,264.9498,95.1359,-5.0667e-05,-6.97e-06,0.0,0 STARLINK-5317,1 55283U 23010Q   23150.24950723 -.00000697  00000-0 -50667-4 0  9994,2 55283  70.0009  82.1787 0002641 264.9498  95.1359 14.98323622 20823,6950.213,96.107,573.913,570.242,0.0
55283.0,STARLINK-5317,PAYLOAD,2023-05-30 22:00:37,14.98336128,0.0002707,70.0006,80.4951,265.3656,94.7194,-6.5737e-06,-1.71e-06,0.0,0 STARLINK-5317,1 55283U 23010Q   23150.91709758 -.00000171  00000-0 -65737-5 0  9990,2 55283  70.0006  80.4951 0002707 265.3656  94.7194 14.98336128 20926,6950.174,96.107,573.92,570.158,0.0
55283.0,STARLINK-5317,PAYLOAD,2023-05-31 04:25:09,14.9833764,0.0002726,70.0006,79.8214,268.3951,91.6896,1.3554e-05,6.9e-07,0.0,0 STARLINK-5317,1 55283U 23010Q   23151.18413548  .00000069  00000-0  13554-4 0  9992,2 55283  70.0006  79.8214 0002726 268.3951  91.6896 14.98337640 20668,6950.169,96.107,573.929,570.14,0.0
55283.0,STARLINK-5317,PAYLOAD,2023-05-31 22:02:38,14.98326367,0.0002854,70.0001,77.9692,269.1677,90.9155,7.9984e-05,8.61e-06,0.0,0 STARLINK-5317,1 55283U 23010Q   23151.91850015  .00000861  00000-0  79984-4 0  9996,2 55283  70.0001  77.9692 0002854 269.1677  90.9155 14.98326367 21078,6950.204,96.107,574.053,570.086,0.0
55283.0,STARLINK-5317,PAYLOAD,2023-06-01 02:51:02,14.98328046,0.0002796,70.0002,77.4637,265.3894,94.6946,9.8362e-05,1.081e-05,0.0,0 STARLINK-5317,1 55283U 23010Q   23152.11877867  .00001081  00000-0  98362-4 0  9999,2 55283  70.0002  77.4637 0002796 265.3894  94.6946 14.98328046 20802,6950.199,96.107,574.007,570.121,0.0
55283.0,STARLINK-5317,PAYLOAD,2023-06-01 04:27:10,14.98328962,0.0002882,70.0,77.2956,267.3924,92.6905,9.7987e-05,1.076e-05,0.0,0 STARLINK-5317,1 55283U 23010Q   23152.18553824  .00001076  00000-0  97987-4 0  9996,2 55283  70.0000  77.2956 0002882 267.3924  92.6905 14.98328962 21119,6950.196,96.107,574.064,570.058,0.0
55283.0,STARLINK-5317,PAYLOAD,2023-06-02 02:53:03,14.98332238,0.0002952,70.0002,74.9405,269.1551,90.927,-7.6185e-06,-1.84e-06,0.0,0 STARLINK-5317,1 55283U 23010Q   23153.12017895 -.00000184  00000-0 -76185-5 0  9993,2 55283  70.0002  74.9405 0002952 269.1551  90.9270 14.98332238 20956,6950.186,96.107,574.103,569.999,0.0
